{"type": "FeatureCollection", "features": [{"type": "Feature", "properties": {"SA2_NAME21": "Brunswick - South", "library_count": 1}, "geometry": {"type": "Point", "coordinates": [144.9597289935926, -37.77154214321798]}}, {"type": "Feature", "properties": {"SA2_NAME21": "Coburg - East", "library_count": 1}, "geometry": {"type": "Point", "coordinates": [144.97185497008303, -37.74561044694683]}}, {"type": "Feature", "properties": {"SA2_NAME21": "Northcote - East", "library_count": 1}, "geometry": {"type": "Point", "coordinates": [145.006697765953, -37.77426191818712]}}, {"type": "Feature", "properties": {"SA2_NAME21": "Carlton", "library_count": 2}, "geometry": {"type": "Point", "coordinates": [144.96779524448633, -37.8004807112168]}}, {"type": "Feature", "properties": {"SA2_NAME21": "Docklands", "library_count": 1}, "geometry": {"type": "Point", "coordinates": [144.94326018944574, -37.81794982701986]}}, {"type": "Feature", "properties": {"SA2_NAME21": "East Melbourne", "library_count": 1}, "geometry": {"type": "Point", "coordinates": [144.9814843205688, -37.81713692770874]}}, {"type": "Feature", "properties": {"SA2_NAME21": "South Yarra - West", "library_count": 1}, "geometry": {"type": "Point", "coordinates": [144.9818555141687, -37.83946943506962]}}, {"type": "Feature", "properties": {"SA2_NAME21": "Melbourne CBD - East", "library_count": 2}, "geometry": {"type": "Point", "coordinates": [144.96858928984983, -37.812815699130674]}}, {"type": "Feature", "properties": {"SA2_NAME21": "Southbank - East", "library_count": 1}, "geometry": {"type": "Point", "coordinates": [144.96613381399595, -37.82639481245826]}}, {"type": "Feature", "properties": {"SA2_NAME21": "Albert Park", "library_count": 1}, "geometry": {"type": "Point", "coordinates": [144.96404200208704, -37.84561849016902]}}, {"type": "Feature", "properties": {"SA2_NAME21": "Port Melbourne", "library_count": 1}, "geometry": {"type": "Point", "coordinates": [144.93499934993434, -37.838055092177015]}}, {"type": "Feature", "properties": {"SA2_NAME21": "South Melbourne", "library_count": 1}, "geometry": {"type": "Point", "coordinates": [144.95971440710315, -37.834657064798456]}}, {"type": "Feature", "properties": {"SA2_NAME21": "Prahran - Windsor", "library_count": 1}, "geometry": {"type": "Point", "coordinates": [144.9980468068493, -37.85283789399486]}}, {"type": "Feature", "properties": {"SA2_NAME21": "Fitzroy North", "library_count": 1}, "geometry": {"type": "Point", "coordinates": [144.9843231044426, -37.78403202568857]}}, {"type": "Feature", "properties": {"SA2_NAME21": "Camberwell", "library_count": 1}, "geometry": {"type": "Point", "coordinates": [145.07401397797918, -37.83842495677228]}}, {"type": "Feature", "properties": {"SA2_NAME21": "Doncaster", "library_count": 1}, "geometry": {"type": "Point", "coordinates": [145.12387154649505, -37.78482645908704]}}, {"type": "Feature", "properties": {"SA2_NAME21": "Box Hill", "library_count": 1}, "geometry": {"type": "Point", "coordinates": [145.124717516825, -37.829020164366504]}}, {"type": "Feature", "properties": {"SA2_NAME21": "Malvern - Glen Iris", "library_count": 1}, "geometry": {"type": "Point", "coordinates": [145.04223893871537, -37.85639731407664]}}, {"type": "Feature", "properties": {"SA2_NAME21": "Greensborough", "library_count": 1}, "geometry": {"type": "Point", "coordinates": [145.11388594095578, -37.700069454001145]}}, {"type": "Feature", "properties": {"SA2_NAME21": "Heidelberg - Rosanna", "library_count": 1}, "geometry": {"type": "Point", "coordinates": [145.0696814837798, -37.745682018498826]}}, {"type": "Feature", "properties": {"SA2_NAME21": "Preston - West", "library_count": 1}, "geometry": {"type": "Point", "coordinates": [144.99010383384163, -37.739920008687136]}}, {"type": "Feature", "properties": {"SA2_NAME21": "Eltham", "library_count": 1}, "geometry": {"type": "Point", "coordinates": [145.15678921697943, -37.714722240916274]}}, {"type": "Feature", "properties": {"SA2_NAME21": "Sunbury", "library_count": 1}, "geometry": {"type": "Point", "coordinates": [144.76757238055373, -37.539409769759]}}, {"type": "Feature", "properties": {"SA2_NAME21": "Broadmeadows", "library_count": 1}, "geometry": {"type": "Point", "coordinates": [144.9293091603701, -37.68407535656854]}}, {"type": "Feature", "properties": {"SA2_NAME21": "Nunawading", "library_count": 1}, "geometry": {"type": "Point", "coordinates": [145.17652183861344, -37.8173977935332]}}, {"type": "Feature", "properties": {"SA2_NAME21": "Cranbourne", "library_count": 1}, "geometry": {"type": "Point", "coordinates": [145.2757208767896, -38.10688665005949]}}, {"type": "Feature", "properties": {"SA2_NAME21": "Springvale", "library_count": 1}, "geometry": {"type": "Point", "coordinates": [145.15780805904552, -37.94567574077029]}}, {"type": "Feature", "properties": {"SA2_NAME21": "Glen Waverley - East", "library_count": 1}, "geometry": {"type": "Point", "coordinates": [145.1783918568032, -37.88148909197546]}}, {"type": "Feature", "properties": {"SA2_NAME21": "Mount Waverley - North", "library_count": 1}, "geometry": {"type": "Point", "coordinates": [145.13023295032562, -37.866447434152384]}}, {"type": "Feature", "properties": {"SA2_NAME21": "Oakleigh - Huntingdale", "library_count": 1}, "geometry": {"type": "Point", "coordinates": [145.10121856300984, -37.90845325765007]}}, {"type": "Feature", "properties": {"SA2_NAME21": "Wheelers Hill", "library_count": 1}, "geometry": {"type": "Point", "coordinates": [145.18687328058112, -37.90759743342472]}}, {"type": "Feature", "properties": {"SA2_NAME21": "Sunshine", "library_count": 1}, "geometry": {"type": "Point", "coordinates": [144.83422507060016, -37.78931656539278]}}, {"type": "Feature", "properties": {"SA2_NAME21": "Altona", "library_count": 1}, "geometry": {"type": "Point", "coordinates": [144.8150212714531, -37.86029389198769]}}, {"type": "Feature", "properties": {"SA2_NAME21": "Newport", "library_count": 1}, "geometry": {"type": "Point", "coordinates": [144.88228211179455, -37.83763854723024]}}, {"type": "Feature", "properties": {"SA2_NAME21": "Williamstown", "library_count": 1}, "geometry": {"type": "Point", "coordinates": [144.8848595253647, -37.85912786262698]}}, {"type": "Feature", "properties": {"SA2_NAME21": "Footscray", "library_count": 1}, "geometry": {"type": "Point", "coordinates": [144.89728307430866, -37.798098532660745]}}, {"type": "Feature", "properties": {"SA2_NAME21": "Melton", "library_count": 1}, "geometry": {"type": "Point", "coordinates": [144.59582069315857, -37.68573584588928]}}, {"type": "Feature", "properties": {"SA2_NAME21": "Werribee - South", "library_count": 1}, "geometry": {"type": "Point", "coordinates": [144.65287786561564, -37.95134026342304]}}, {"type": "Feature", "properties": {"SA2_NAME21": "Point Cook - South", "library_count": 1}, "geometry": {"type": "Point", "coordinates": [144.7334631949829, -37.911339625193136]}}, {"type": "Feature", "properties": {"SA2_NAME21": "Frankston", "library_count": 1}, "geometry": {"type": "Point", "coordinates": [145.13965452857974, -38.15408953630297]}}]}